[{"OBJECT_NAME":"KUIPER-00250","OBJECT_ID":"2025-301Y","EPOCH":"2026-03-09T22:00:01.999584","MEAN_MOTION":14.86129837,"ECCENTRICITY":0.0009361,"INCLINATION":51.8993,"RA_OF_ASC_NODE":69.036,"ARG_OF_PERICENTER":63.5906,"MEAN_ANOMALY":8.0341,"EPHEMERIS_TYPE":0,"CLASSIFICATION_TYPE":"U","NORAD_CAT_ID":67155,"ELEMENT_SET_NO":999,"REV_AT_EPOCH":535,"BSTAR":-0.0031733957,"MEAN_MOTION_DOT":-0.00028238,"MEAN_MOTION_DDOT":0},{"OBJECT_NAME":"CZ-4B DEB","OBJECT_ID":"1999-057EY","EPOCH":"2026-03-09T20:20:10.918176","MEAN_MOTION":14.81211218,"ECCENTRICITY":0.00400513,"INCLINATION":98.332,"RA_OF_ASC_NODE":164.8321,"ARG_OF_PERICENTER":103.9609,"MEAN_ANOMALY":15.9592,"EPHEMERIS_TYPE":0,"CLASSIFICATION_TYPE":"U","NORAD_CAT_ID":26262,"ELEMENT_SET_NO":999,"REV_AT_EPOCH":37309,"BSTAR":0.0015382384,"MEAN_MOTION_DOT":0.00012101,"MEAN_MOTION_DDOT":0}]
